COSMOS 1933             
1 18958U 88020A   26008.26530016  .00004802  00000+0  23880-3 0  9995
2 18958  82.5147 310.6670 0006172  61.6126 298.5729 15.17394041 41069
SL-3 R/B                
1 19046U 88032B   26008.27922190  .00005992  00000+0  28601-3 0  9993
2 19046  97.5113 351.8247 0028464  84.9811 275.4671 15.19074284 42934
SL-16 R/B               
1 19120U 88039B   26008.24127908  .00000028  00000+0  35997-4 0  9996
2 19120  71.0133 196.3638 0019628  70.8304 289.4943 14.19604047949809
COSMOS 1953             
1 19210U 88050A   26006.86628059  .00006843  00000+0  25443-3 0  9993
2 19210  82.5067 220.3632 0011626 349.1631  10.9355 15.27279129 28349
SL-8 R/B                
1 19257U 88053B   26008.32967242  .00000260  00000+0  92780-4 0  9996
2 19257  74.0457 223.7142 0019131  57.8730 114.7600 14.38878578967919
COSMOS 1975             
1 19573U 88093A   26007.93286331  .00006845  00000+0  25726-3 0  9990
2 19573  82.5201 178.5984 0012264  29.2993 330.8930 15.26916404 10135
SL-14 R/B               
1 19574U 88093B   26008.31330510  .00000651  00000+0  72241-4 0  9997
2 19574  82.5315  98.7309 0019482 235.5278 184.9783 14.85585760992070
SL-16 R/B               
1 19650U 88102B   26008.15869682 -.00000050  00000+0 -12971-5 0  9992
2 19650  70.9998 278.8567 0011949 105.8071 254.4370 14.16141351918329
INTERCOSMOS 24          
1 20261U 89080A   26008.11875465  .00000461  00000+0  12643-3 0  9998
2 20261  82.6073 143.8054 1188977  73.3560 299.4485 12.59481064659178
SL-14 R/B               
1 20262U 89080C   26008.06587347  .00000267  00000+0  79510-4 0  9993
2 20262  82.5910 212.1167 1230002 323.4198  28.8652 12.50435040652577
DELTA 1 R/B             
1 20323U 89089B   26008.19664265  .00000511  00000+0  13537-3 0  9997
2 20323  97.0737 225.2398 0068049 314.7823  44.7852 14.50600514886964
ARIANE 40 R/B           
1 20443U 90005H   26008.14692107  .00000289  00000+0  10542-3 0  9996
2 20443  98.3202  70.5739 0010570  33.1094 327.0755 14.39821834884094
