CCSDS_OMM_VERS = 2.0
CREATION_DATE  = 
ORIGINATOR     = 

OBJECT_NAME    = COSMOS 1933
OBJECT_ID      = 1988-020A
CENTER_NAME    = EARTH
REF_FRAME      = TEME
TIME_SYSTEM    = UTC
MEAN_ELEMENT_THEORY = SGP/SGP4

EPOCH          = 2026-01-08T06:22:01.933824
MEAN_MOTION    = 15.17394041
ECCENTRICITY   = .00061728
INCLINATION    = 82.5147
RA_OF_ASC_NODE = 310.6670
ARG_OF_PERICENTER = 61.6126
MEAN_ANOMALY   = 298.5729

EPHEMERIS_TYPE = 0
CLASSIFICATION_TYPE = U
NORAD_CAT_ID   = 18958
ELEMENT_SET_NO = 999
REV_AT_EPOCH   = 4106
BSTAR          = .23879873E-3
MEAN_MOTION_DOT = .4802E-4
MEAN_MOTION_DDOT = 0

CCSDS_OMM_VERS = 2.0
CREATION_DATE  = 
ORIGINATOR     = 

OBJECT_NAME    = SL-3 R/B
OBJECT_ID      = 1988-032B
CENTER_NAME    = EARTH
REF_FRAME      = TEME
TIME_SYSTEM    = UTC
MEAN_ELEMENT_THEORY = SGP/SGP4

EPOCH          = 2026-01-08T06:42:04.772160
MEAN_MOTION    = 15.19074284
ECCENTRICITY   = .00284648
INCLINATION    = 97.5113
RA_OF_ASC_NODE = 351.8247
ARG_OF_PERICENTER = 84.9811
MEAN_ANOMALY   = 275.4671

EPHEMERIS_TYPE = 0
CLASSIFICATION_TYPE = U
NORAD_CAT_ID   = 19046
ELEMENT_SET_NO = 999
REV_AT_EPOCH   = 4293
BSTAR          = .28600904E-3
MEAN_MOTION_DOT = .5992E-4
MEAN_MOTION_DDOT = 0

CCSDS_OMM_VERS = 2.0
CREATION_DATE  = 
ORIGINATOR     = 

OBJECT_NAME    = SL-16 R/B
OBJECT_ID      = 1988-039B
CENTER_NAME    = EARTH
REF_FRAME      = TEME
TIME_SYSTEM    = UTC
MEAN_ELEMENT_THEORY = SGP/SGP4

EPOCH          = 2026-01-08T05:47:26.512512
MEAN_MOTION    = 14.19604047
ECCENTRICITY   = .00196282
INCLINATION    = 71.0133
RA_OF_ASC_NODE = 196.3638
ARG_OF_PERICENTER = 70.8304
MEAN_ANOMALY   = 289.4943

EPHEMERIS_TYPE = 0
CLASSIFICATION_TYPE = U
NORAD_CAT_ID   = 19120
ELEMENT_SET_NO = 999
REV_AT_EPOCH   = 94980
BSTAR          = .35997438E-4
MEAN_MOTION_DOT = .28E-6
MEAN_MOTION_DDOT = 0

CCSDS_OMM_VERS = 2.0
CREATION_DATE  = 
ORIGINATOR     = 

OBJECT_NAME    = COSMOS 1953
OBJECT_ID      = 1988-050A
CENTER_NAME    = EARTH
REF_FRAME      = TEME
TIME_SYSTEM    = UTC
MEAN_ELEMENT_THEORY = SGP/SGP4

EPOCH          = 2026-01-06T20:47:26.642976
MEAN_MOTION    = 15.27279129
ECCENTRICITY   = .0011626
INCLINATION    = 82.5067
RA_OF_ASC_NODE = 220.3632
ARG_OF_PERICENTER = 349.1631
MEAN_ANOMALY   = 10.9355

EPHEMERIS_TYPE = 0
CLASSIFICATION_TYPE = U
NORAD_CAT_ID   = 19210
ELEMENT_SET_NO = 999
REV_AT_EPOCH   = 2834
BSTAR          = .25443E-3
MEAN_MOTION_DOT = .6843E-4
MEAN_MOTION_DDOT = 0

CCSDS_OMM_VERS = 2.0
CREATION_DATE  = 
ORIGINATOR     = 

OBJECT_NAME    = SL-8 R/B
OBJECT_ID      = 1988-053B
CENTER_NAME    = EARTH
REF_FRAME      = TEME
TIME_SYSTEM    = UTC
MEAN_ELEMENT_THEORY = SGP/SGP4

EPOCH          = 2026-01-08T07:54:43.697088
MEAN_MOTION    = 14.38878578
ECCENTRICITY   = .00191316
INCLINATION    = 74.0457
RA_OF_ASC_NODE = 223.7142
ARG_OF_PERICENTER = 57.8730
MEAN_ANOMALY   = 114.7600

EPHEMERIS_TYPE = 0
CLASSIFICATION_TYPE = U
NORAD_CAT_ID   = 19257
ELEMENT_SET_NO = 999
REV_AT_EPOCH   = 96791
BSTAR          = .92780093E-4
MEAN_MOTION_DOT = .26E-5
MEAN_MOTION_DDOT = 0

CCSDS_OMM_VERS = 2.0
CREATION_DATE  = 
ORIGINATOR     = 

OBJECT_NAME    = COSMOS 1975
OBJECT_ID      = 1988-093A
CENTER_NAME    = EARTH
REF_FRAME      = TEME
TIME_SYSTEM    = UTC
MEAN_ELEMENT_THEORY = SGP/SGP4

EPOCH          = 2026-01-07T22:23:19.389984
MEAN_MOTION    = 15.26916404
ECCENTRICITY   = .0012264
INCLINATION    = 82.5201
RA_OF_ASC_NODE = 178.5984
ARG_OF_PERICENTER = 29.2993
MEAN_ANOMALY   = 330.8930

EPHEMERIS_TYPE = 0
CLASSIFICATION_TYPE = U
NORAD_CAT_ID   = 19573
ELEMENT_SET_NO = 999
REV_AT_EPOCH   = 1013
BSTAR          = .25726E-3
MEAN_MOTION_DOT = .6845E-4
MEAN_MOTION_DDOT = 0

CCSDS_OMM_VERS = 2.0
CREATION_DATE  = 
ORIGINATOR     = 

OBJECT_NAME    = SL-14 R/B
OBJECT_ID      = 1988-093B
CENTER_NAME    = EARTH
REF_FRAME      = TEME
TIME_SYSTEM    = UTC
MEAN_ELEMENT_THEORY = SGP/SGP4

EPOCH          = 2026-01-08T07:31:09.560640
MEAN_MOTION    = 14.85585760
ECCENTRICITY   = .00194826
INCLINATION    = 82.5315
RA_OF_ASC_NODE = 98.7309
ARG_OF_PERICENTER = 235.5278
MEAN_ANOMALY   = 184.9783

EPHEMERIS_TYPE = 0
CLASSIFICATION_TYPE = U
NORAD_CAT_ID   = 19574
ELEMENT_SET_NO = 999
REV_AT_EPOCH   = 99207
BSTAR          = .72240589E-4
MEAN_MOTION_DOT = .651E-5
MEAN_MOTION_DDOT = 0

CCSDS_OMM_VERS = 2.0
CREATION_DATE  = 
ORIGINATOR     = 

OBJECT_NAME    = SL-16 R/B
OBJECT_ID      = 1988-102B
CENTER_NAME    = EARTH
REF_FRAME      = TEME
TIME_SYSTEM    = UTC
MEAN_ELEMENT_THEORY = SGP/SGP4

EPOCH          = 2026-01-08T03:48:31.405248
MEAN_MOTION    = 14.16141351
ECCENTRICITY   = .00119494
INCLINATION    = 70.9998
RA_OF_ASC_NODE = 278.8567
ARG_OF_PERICENTER = 105.8071
MEAN_ANOMALY   = 254.4370

EPHEMERIS_TYPE = 0
CLASSIFICATION_TYPE = U
NORAD_CAT_ID   = 19650
ELEMENT_SET_NO = 999
REV_AT_EPOCH   = 91832
BSTAR          = -.1297107E-5
MEAN_MOTION_DOT = -.5E-6
MEAN_MOTION_DDOT = 0

CCSDS_OMM_VERS = 2.0
CREATION_DATE  = 
ORIGINATOR     = 

OBJECT_NAME    = INTERCOSMOS 24
OBJECT_ID      = 1989-080A
CENTER_NAME    = EARTH
REF_FRAME      = TEME
TIME_SYSTEM    = UTC
MEAN_ELEMENT_THEORY = SGP/SGP4

EPOCH          = 2026-01-08T02:51:00.401760
MEAN_MOTION    = 12.59481064
ECCENTRICITY   = .11889775
INCLINATION    = 82.6073
RA_OF_ASC_NODE = 143.8054
ARG_OF_PERICENTER = 73.3560
MEAN_ANOMALY   = 299.4485

EPHEMERIS_TYPE = 0
CLASSIFICATION_TYPE = U
NORAD_CAT_ID   = 20261
ELEMENT_SET_NO = 999
REV_AT_EPOCH   = 65917
BSTAR          = .12643286E-3
MEAN_MOTION_DOT = .461E-5
MEAN_MOTION_DDOT = 0

CCSDS_OMM_VERS = 2.0
CREATION_DATE  = 
ORIGINATOR     = 

OBJECT_NAME    = SL-14 R/B
OBJECT_ID      = 1989-080C
CENTER_NAME    = EARTH
REF_FRAME      = TEME
TIME_SYSTEM    = UTC
MEAN_ELEMENT_THEORY = SGP/SGP4

EPOCH          = 2026-01-08T01:34:51.467808
MEAN_MOTION    = 12.50435040
ECCENTRICITY   = .12300029
INCLINATION    = 82.5910
RA_OF_ASC_NODE = 212.1167
ARG_OF_PERICENTER = 323.4198
MEAN_ANOMALY   = 28.8652

EPHEMERIS_TYPE = 0
CLASSIFICATION_TYPE = U
NORAD_CAT_ID   = 20262
ELEMENT_SET_NO = 999
REV_AT_EPOCH   = 65257
BSTAR          = .79510016E-4
MEAN_MOTION_DOT = .267E-5
MEAN_MOTION_DDOT = 0

CCSDS_OMM_VERS = 2.0
CREATION_DATE  = 
ORIGINATOR     = 

OBJECT_NAME    = DELTA 1 R/B
OBJECT_ID      = 1989-089B
CENTER_NAME    = EARTH
REF_FRAME      = TEME
TIME_SYSTEM    = UTC
MEAN_ELEMENT_THEORY = SGP/SGP4

EPOCH          = 2026-01-08T04:43:09.924960
MEAN_MOTION    = 14.50600514
ECCENTRICITY   = .00680491
INCLINATION    = 97.0737
RA_OF_ASC_NODE = 225.2398
ARG_OF_PERICENTER = 314.7823
MEAN_ANOMALY   = 44.7852

EPHEMERIS_TYPE = 0
CLASSIFICATION_TYPE = U
NORAD_CAT_ID   = 20323
ELEMENT_SET_NO = 999
REV_AT_EPOCH   = 88696
BSTAR          = .13536946E-3
MEAN_MOTION_DOT = .511E-5
MEAN_MOTION_DDOT = 0

CCSDS_OMM_VERS = 2.0
CREATION_DATE  = 
ORIGINATOR     = 

OBJECT_NAME    = ARIANE 40 R/B
OBJECT_ID      = 1990-005H
CENTER_NAME    = EARTH
REF_FRAME      = TEME
TIME_SYSTEM    = UTC
MEAN_ELEMENT_THEORY = SGP/SGP4

EPOCH          = 2026-01-08T03:31:33.980448
MEAN_MOTION    = 14.39821834
ECCENTRICITY   = .001057
INCLINATION    = 98.3202
RA_OF_ASC_NODE = 70.5739
ARG_OF_PERICENTER = 33.1094
MEAN_ANOMALY   = 327.0755

EPHEMERIS_TYPE = 0
CLASSIFICATION_TYPE = U
NORAD_CAT_ID   = 20443
ELEMENT_SET_NO = 999
REV_AT_EPOCH   = 88409
BSTAR          = .10542306E-3
MEAN_MOTION_DOT = .289E-5
MEAN_MOTION_DDOT = 0

